NORAD_CAT_ID,OBJECT_NAME,OBJECT_TYPE,EPOCH,MEAN_MOTION,ECCENTRICITY,INCLINATION,RA_OF_ASC_NODE,ARG_OF_PERICENTER,MEAN_ANOMALY,BSTAR,MEAN_MOTION_DOT,MEAN_MOTION_DDOT,TLE_LINE0,TLE_LINE1,TLE_LINE2,SEMIMAJOR_AXIS,PERIOD,APOGEE,PERIGEE,DECAYED
50157.0,STARLINK-3313,PAYLOAD,2023-05-31 05:39:56,15.08843082,0.0001032,53.216,128.6882,81.3854,278.7255,2.2799e-05,7.5e-07,0.0,0 STARLINK-3313,1 50157U 21125B   23151.23606570  .00000075  00000-0  22799-4 0  9995,2 50157  53.2160 128.6882 0001032  81.3854 278.7255 15.08843082 83508,6917.871,95.437,540.45,539.022,0.0
50157.0,STARLINK-3313,PAYLOAD,2023-05-31 15:12:15,15.08838077,0.0001038,53.216,126.904,78.6319,281.4789,1.513e-05,-4.7e-07,0.0,0 STARLINK-3313,1 50157U 21125B   23151.63350903 -.00000047  00000-0  15130-4 0  9996,2 50157  53.2160 126.9040 0001038  78.6319 281.4789 15.08838077 83563,6917.886,95.438,540.469,539.033,0.0
50157.0,STARLINK-3313,PAYLOAD,2023-06-01 05:30:43,15.08839208,0.0001056,53.2158,124.2288,90.0734,270.0379,5.4222e-05,5.75e-06,0.0,0 STARLINK-3313,1 50157U 21125B   23152.22966811  .00000575  00000-0  54222-4 0  9993,2 50157  53.2158 124.2288 0001056  90.0734 270.0379 15.08839208 83650,6917.883,95.438,540.478,539.017,0.0
50157.0,STARLINK-3313,PAYLOAD,2023-06-02 10:07:39,15.08843301,0.0001078,53.216,118.8765,93.3203,266.7912,5.4316e-05,5.77e-06,0.0,0 STARLINK-3313,1 50157U 21125B   23153.42198673  .00000577  00000-0  54316-4 0  9995,2 50157  53.2160 118.8765 0001078  93.3203 266.7912 15.08843301 80700,6917.87,95.437,540.481,538.99,0.0
50157.0,STARLINK-3313,PAYLOAD,2023-06-03 03:36:55,15.08829112,0.0001175,53.2159,115.6054,90.604,269.5087,-5.1832e-05,-1.112e-05,0.0,0 STARLINK-3313,1 50157U 21125B   23154.15064237 -.00001112  00000-0 -51832-4 0  9992,2 50157  53.2159 115.6054 0001175  90.6040 269.5087 15.08829112 80811,6917.914,95.438,540.592,538.966,0.0
50157.0,STARLINK-3313,PAYLOAD,2023-06-03 06:47:41,15.08834807,0.0001234,53.2164,115.0088,89.5389,270.5745,-5.6224e-06,-3.77e-06,0.0,0 STARLINK-3313,1 50157U 21125B   23154.28311816 -.00000377  00000-0 -56224-5 0  9997,2 50157  53.2164 115.0088 0001234  89.5389 270.5745 15.08834807 80839,6917.896,95.438,540.615,538.908,0.0
50157.0,STARLINK-3313,PAYLOAD,2023-06-04 03:27:41,15.08847435,0.0001184,53.2167,111.1436,92.1675,267.9453,6.1761e-05,6.95e-06,0.0,0 STARLINK-3313,1 50157U 21125B   23155.14422826  .00000695  00000-0  61761-4 0  9999,2 50157  53.2167 111.1436 0001184  92.1675 267.9453 15.08847435 80969,6917.858,95.437,540.542,538.904,0.0
50157.0,STARLINK-3313,PAYLOAD,2023-06-04 14:35:23,15.08843217,0.0001162,53.2167,109.0629,87.2234,272.8891,-1.3746e-05,-5.07e-06,0.0,0 STARLINK-3313,1 50157U 21125B   23155.60791260 -.00000507  00000-0 -13746-4 0  9995,2 50157  53.2167 109.0629 0001162  87.2234 272.8891 15.08843217 81035,6917.871,95.437,540.539,538.932,0.0
50157.0,STARLINK-3313,PAYLOAD,2023-06-04 20:56:56,15.08833406,0.0001156,53.2165,107.8736,88.8022,271.3102,9.2517e-05,1.185e-05,0.0,0 STARLINK-3313,1 50157U 21125B   23155.87287627  .00001185  00000-0  92517-4 0  9995,2 50157  53.2165 107.8736 0001156  88.8022 271.3102 15.08833406 84203,6917.901,95.438,540.565,538.966,0.0
50157.0,STARLINK-3313,PAYLOAD,2023-06-05 06:29:15,15.08841065,0.000119,53.2171,106.0885,93.5373,266.5756,7.2769e-05,8.7e-06,0.0,0 STARLINK-3313,1 50157U 21125B   23156.27031273  .00000870  00000-0  72769-4 0  9991,2 50157  53.2171 106.0885 0001190  93.5373 266.5756 15.08841065 84263,6917.877,95.437,540.565,538.919,0.0
50157.0,STARLINK-3313,PAYLOAD,2023-06-05 23:58:29,15.08808503,0.0001397,53.2177,102.8171,100.073,260.0419,0.00037936,5.75e-05,0.0,0 STARLINK-3313,1 50157U 21125B   23156.99895769  .00005750  00000-0  37936-3 0  9996,2 50157  53.2177 102.8171 0001397 100.0730 260.0419 15.08808503 81241,6917.977,95.44,540.808,538.875,0.0
50157.0,STARLINK-3313,PAYLOAD,2023-06-06 03:09:15,15.08844498,0.0001327,53.217,102.2216,97.6217,262.4926,4.8426e-06,-2.11e-06,0.0,0 STARLINK-3313,1 50157U 21125B   23157.13143243 -.00000211  00000-0  48426-5 0  9992,2 50157  53.2170 102.2216 0001327  97.6217 262.4926 15.08844498 81266,6917.867,95.437,540.65,538.814,0.0
50157.0,STARLINK-3313,PAYLOAD,2023-06-06 23:49:17,15.08834438,0.0001174,53.2165,98.3576,86.0228,274.0898,2.3708e-05,8.9e-07,0.0,0 STARLINK-3313,1 50157U 21125B   23157.99255874  .00000089  00000-0  23708-4 0  9997,2 50157  53.2165  98.3576 0001174  86.0228 274.0898 15.08834438 81392,6917.897,95.438,540.575,538.95,0.0
50157.0,STARLINK-3313,PAYLOAD,2023-06-07 03:00:03,15.08839886,0.0001196,53.2165,97.763,78.9038,281.2089,4.7917e-05,4.75e-06,0.0,0 STARLINK-3313,1 50157U 21125B   23158.12503517  .00000475  00000-0  47917-4 0  9990,2 50157  53.2165  97.7630 0001196  78.9038 281.2089 15.08839886 84543,6917.881,95.438,540.573,538.918,0.0
50157.0,STARLINK-3313,PAYLOAD,2023-06-07 20:29:18,15.08835051,0.0001165,53.2163,94.4905,94.342,265.7706,-5.1423e-05,-1.106e-05,0.0,0 STARLINK-3313,1 50157U 21125B   23158.85368347 -.00001106  00000-0 -51423-4 0  9991,2 50157  53.2163  94.4905 0001165  94.3420 265.7706 15.08835051 84658,6917.896,95.438,540.566,538.955,0.0
50157.0,STARLINK-3313,PAYLOAD,2023-06-08 02:50:50,15.08844408,0.0001065,53.2167,93.303,84.0262,276.0852,-0.00014899,-2.658e-05,0.0,0 STARLINK-3313,1 50157U 21125B   23159.11864245 -.00002658  00000-0 -14899-3 0  9997,2 50157  53.2167  93.3030 0001065  84.0262 276.0852 15.08844408 81568,6917.867,95.437,540.469,538.995,0.0
50157.0,STARLINK-3313,PAYLOAD,2023-06-08 04:26:13,15.08838306,0.0001127,53.2169,93.0051,85.3861,274.726,-3.8803e-05,-9.05e-06,0.0,0 STARLINK-3313,1 50157U 21125B   23159.18488256 -.00000905  00000-0 -38803-4 0  9993,2 50157  53.2169  93.0051 0001127  85.3861 274.7260 15.08838306 84705,6917.886,95.438,540.53,538.971,0.0
50157.0,STARLINK-3313,PAYLOAD,2023-06-09 04:17:00,15.08839477,0.0001165,53.2169,88.5447,101.7749,258.3374,0.00024342,3.588e-05,0.0,0 STARLINK-3313,1 50157U 21125B   23160.17847328  .00003588  00000-0  24342-3 0  9993,2 50157  53.2169  88.5447 0001165 101.7749 258.3374 15.08839477 81726,6917.882,95.438,540.553,538.941,0.0
50157.0,STARLINK-3313,PAYLOAD,2023-06-09 12:13:56,15.08836238,0.0001565,53.2169,87.0575,89.6766,270.4405,-9.9338e-07,-3.04e-06,0.0,0 STARLINK-3313,1 50157U 21125B   23160.50968410 -.00000304  00000-0 -99338-6 0  9991,2 50157  53.2169  87.0575 0001565  89.6766 270.4405 15.08836238 84904,6917.892,95.438,540.84,538.674,0.0
50157.0,STARLINK-3313,PAYLOAD,2023-06-09 18:35:29,15.08831184,0.0002444,53.2169,85.8687,82.1431,277.9838,3.0288e-05,1.94e-06,0.0,0 STARLINK-3313,1 50157U 21125B   23160.77465246  .00000194  00000-0  30288-4 0  9991,2 50157  53.2169  85.8687 0002444  82.1431 277.9838 15.08831184 81812,6917.907,95.438,541.463,538.082,0.0
50157.0,STARLINK-3313,PAYLOAD,2023-06-10 00:57:04,15.08811861,0.0001285,53.2171,84.679,90.5955,269.5185,-0.00012808,-2.324e-05,0.0,0 STARLINK-3313,1 50157U 21125B   23161.03963031 -.00002324  00000-0 -12808-3 0  9992,2 50157  53.2171  84.6790 0001285  90.5955 269.5185 15.08811861 81859,6917.966,95.439,540.72,538.942,0.0
50157.0,STARLINK-3313,PAYLOAD,2023-06-10 12:04:45,15.08826919,0.000133,53.2175,82.5979,94.2161,265.8984,-1.0877e-05,-4.61e-06,0.0,0 STARLINK-3313,1 50157U 21125B   23161.50330352 -.00000461  00000-0 -10877-4 0  9993,2 50157  53.2175  82.5979 0001330  94.2161 265.8984 15.08826919 85052,6917.92,95.438,540.705,538.865,0.0
50157.0,STARLINK-3313,PAYLOAD,2023-06-11 11:55:31,15.08847519,0.0001661,53.2187,78.1356,95.1672,264.951,6.2564e-05,7.08e-06,0.0,0 STARLINK-3313,1 50157U 21125B   23162.49689668  .00000708  00000-0  62564-4 0  9991,2 50157  53.2187  78.1356 0001661  95.1672 264.9510 15.08847519 85200,6917.857,95.437,540.871,538.573,0.0
50157.0,STARLINK-3313,PAYLOAD,2023-06-11 18:17:04,15.08837633,0.0001433,53.2179,76.9467,89.1221,270.9935,0.00037734,5.722e-05,0.0,0 STARLINK-3313,1 50157U 21125B   23162.76185573  .00005722  00000-0  37734-3 0  9998,2 50157  53.2179  76.9467 0001433  89.1221 270.9935 15.08837633 85248,6917.888,95.438,540.744,538.761,0.0
50157.0,STARLINK-3313,PAYLOAD,2023-06-12 03:49:22,15.08856644,0.0001624,53.2179,75.162,93.4842,266.6336,0.00049812,7.652e-05,0.0,0 STARLINK-3313,1 50157U 21125B   23163.15928508  .00007652  00000-0  49812-3 0  9999,2 50157  53.2179  75.1620 0001624  93.4842 266.6336 15.08856644 82178,6917.83,95.437,540.818,538.571,0.0
50157.0,STARLINK-3313,PAYLOAD,2023-06-13 03:40:09,15.0886106,0.000141,53.2167,70.7029,90.0517,270.0636,0.00018931,2.728e-05,0.0,0 STARLINK-3313,1 50157U 21125B   23164.15288689  .00002728  00000-0  18931-3 0  9996,2 50157  53.2167  70.7029 0001410  90.0517 270.0636 15.08861060 82321,6917.816,95.436,540.656,538.706,0.0
50157.0,STARLINK-3313,PAYLOAD,2023-06-13 13:12:28,15.08853017,0.000136,53.2161,68.9183,94.1472,265.9676,2.2637e-05,7.2e-07,0.0,0 STARLINK-3313,1 50157U 21125B   23164.55032713  .00000072  00000-0  22637-4 0  9994,2 50157  53.2161  68.9183 0001360  94.1472 265.9676 15.08853017 85518,6917.841,95.437,540.646,538.765,0.0
50157.0,STARLINK-3313,PAYLOAD,2023-06-14 00:20:10,15.08848584,0.0001132,53.2162,66.8355,82.1554,277.9567,-8.2719e-05,-1.604e-05,0.0,0 STARLINK-3313,1 50157U 21125B   23165.01400470 -.00001604  00000-0 -82719-4 0  9996,2 50157  53.2162  66.8355 0001132  82.1554 277.9567 15.08848584 85584,6917.854,95.437,540.502,538.936,0.0
50157.0,STARLINK-3313,PAYLOAD,2023-06-14 17:49:24,15.08839718,0.0001251,53.2175,63.5685,85.6991,274.4144,-1.3029e-05,-4.95e-06,0.0,0 STARLINK-3313,1 50157U 21125B   23165.74264804 -.00000495  00000-0 -13029-4 0  9990,2 50157  53.2175  63.5685 0001251  85.6991 274.4144 15.08839718 82560,6917.881,95.438,540.612,538.881,0.0
50157.0,STARLINK-3313,PAYLOAD,2023-06-15 00:10:57,15.08842812,0.0001342,53.2175,62.3774,90.4345,269.6801,6.1248e-05,6.87e-06,0.0,0 STARLINK-3313,1 50157U 21125B   23166.00760644  .00000687  00000-0  61248-4 0  9990,2 50157  53.2175  62.3774 0001342  90.4345 269.6801 15.08842812 85731,6917.872,95.437,540.665,538.808,0.0
